CCSDS_OMM_VERS = 2.0
CREATION_DATE  = 
ORIGINATOR     = 

OBJECT_NAME    = XRISM
OBJECT_ID      = 2023-137A
CENTER_NAME    = EARTH
REF_FRAME      = TEME
TIME_SYSTEM    = UTC
MEAN_ELEMENT_THEORY = SGP/SGP4

EPOCH          = 2026-03-10T19:54:10.152288
MEAN_MOTION    = 15.11516802
ECCENTRICITY   = .00078598
INCLINATION    = 31.0015
RA_OF_ASC_NODE = 276.2923
ARG_OF_PERICENTER = 50.5132
MEAN_ANOMALY   = 309.6200

EPHEMERIS_TYPE = 0
CLASSIFICATION_TYPE = U
NORAD_CAT_ID   = 57800
ELEMENT_SET_NO = 999
REV_AT_EPOCH   = 13796
BSTAR          = .34559694E-3
MEAN_MOTION_DOT = .6101E-4
MEAN_MOTION_DDOT = 0

CCSDS_OMM_VERS = 2.0
CREATION_DATE  = 
ORIGINATOR     = 

OBJECT_NAME    = ACS3
OBJECT_ID      = 2024-077B
CENTER_NAME    = EARTH
REF_FRAME      = TEME
TIME_SYSTEM    = UTC
MEAN_ELEMENT_THEORY = SGP/SGP4

EPOCH          = 2026-03-10T19:03:25.088832
MEAN_MOTION    = 13.89639166
ECCENTRICITY   = .00604033
INCLINATION    = 97.2064
RA_OF_ASC_NODE = 10.6574
ARG_OF_PERICENTER = 73.9398
MEAN_ANOMALY   = 286.8406

EPHEMERIS_TYPE = 0
CLASSIFICATION_TYPE = U
NORAD_CAT_ID   = 59588
ELEMENT_SET_NO = 999
REV_AT_EPOCH   = 9435
BSTAR          = .11379429E-1
MEAN_MOTION_DOT = .14141E-3
MEAN_MOTION_DDOT = 0

CCSDS_OMM_VERS = 2.0
CREATION_DATE  = 
ORIGINATOR     = 

OBJECT_NAME    = SZ-21 MODULE
OBJECT_ID      = 2025-246C
CENTER_NAME    = EARTH
REF_FRAME      = TEME
TIME_SYSTEM    = UTC
MEAN_ELEMENT_THEORY = SGP/SGP4

EPOCH          = 2026-03-10T09:24:12.315744
MEAN_MOTION    = 15.68612654
ECCENTRICITY   = .00013212
INCLINATION    = 41.4733
RA_OF_ASC_NODE = 199.0379
ARG_OF_PERICENTER = 300.4317
MEAN_ANOMALY   = 59.6394

EPHEMERIS_TYPE = 0
CLASSIFICATION_TYPE = U
NORAD_CAT_ID   = 66515
ELEMENT_SET_NO = 999
REV_AT_EPOCH   = 1818
BSTAR          = .39494604E-3
MEAN_MOTION_DOT = .46134E-3
MEAN_MOTION_DDOT = 0

